{"type": "FeatureCollection", "features": [ {"type": "Feature", "properties": {"norad_id": 42738, "name": "QZS-2 (QZSS/PRN 194)", "group": "gnss", "lat": 24.889600791931027, "lon": 31.91409516697221, "alt_km": 37708.49870814193, "timestamp": "2025-12-17T10:52:54.596080+00:00", "meta": {"OBJECT_NAME": "QZS-2 (QZSS/PRN 194)", "OBJECT_ID": "2017-028A", "EPOCH": "2025-12-16T13:59:18.709152", "MEAN_MOTION": 1.00282034, "ECCENTRICITY": 0.07568845, "INCLINATION": 39.7078, "RA_OF_ASC_NODE": 245.8268, "ARG_OF_PERICENTER": 269.5176, "MEAN_ANOMALY": 281.8987, "EPHEMERIS_TYPE": 0, "CLASSIFICATION_TYPE": "U", "NORAD_CAT_ID": 42738, "ELEMENT_SET_NO": 999, "REV_AT_EPOCH": 579, "BSTAR": 0, "MEAN_MOTION_DOT": -1.46e-06, "MEAN_MOTION_DDOT": 0}, "tle": {"line1": "1 42738U 17028A   25350.58285543 -.00000146  00000+0  00000+0 0  9997", "line2": "2 42738  39.7078 245.8268 0756884 269.5176 281.8987  1.00282034  5793"}}, "geometry": {"type": "Point", "coordinates": [31.91409516697221, 24.889600791931027]}}, {"type": "Feature", "properties": {"norad_id": 42917, "name": "QZS-3 (QZSS/PRN 199)", "group": "gnss", "lat": 0.005184221572238744, "lon": 16.598766410787814, "alt_km": 35788.82596362316, "timestamp": "2025-12-17T10:52:54.596092+00:00", "meta": {"OBJECT_NAME": "QZS-3 (QZSS/PRN 199)", "OBJECT_ID": "2017-048A", "EPOCH": "2025-12-16T19:05:50.585568", "MEAN_MOTION": 1.00267855, "ECCENTRICITY": 0.00017897, "INCLINATION": 0.0272, "RA_OF_ASC_NODE": 203.1896, "ARG_OF_PERICENTER": 71.7643, "MEAN_ANOMALY": 224.2314, "EPHEMERIS_TYPE": 0, "CLASSIFICATION_TYPE": "U", "NORAD_CAT_ID": 42917, "ELEMENT_SET_NO": 999, "REV_AT_EPOCH": 3043, "BSTAR": 0, "MEAN_MOTION_DOT": 0, "MEAN_MOTION_DDOT": 0}, "tle": {"line1": "1 42917U 17048A   25350.79572437  .00000000  00000+0  00000+0 0  9990", "line2": "2 42917   0.0272 203.1896 0001789  71.7643 224.2314  1.00267855 30430"}}, "geometry": {"type": "Point", "coordinates": [16.598766410787814, 0.005184221572238744]}}, {"type": "Feature", "properties": {"norad_id": 42939, "name": "COSMOS 2522 (752)", "group": "gnss", "lat": -44.24089009604226, "lon": 169.79184731828664, "alt_km": 19133.79423549966, "timestamp": "2025-12-17T10:52:54.596104+00:00", "meta": {"OBJECT_NAME": "COSMOS 2522 (752)", "OBJECT_ID": "2017-055A", "EPOCH": "2025-12-16T02:41:16.915776", "MEAN_MOTION": 2.13102063, "ECCENTRICITY": 0.00063883, "INCLINATION": 64.0761, "RA_OF_ASC_NODE": 198.1142, "ARG_OF_PERICENTER": 224.0896, "MEAN_ANOMALY": 135.9399, "EPHEMERIS_TYPE": 0, "CLASSIFICATION_TYPE": "U", "NORAD_CAT_ID": 42939, "ELEMENT_SET_NO": 999, "REV_AT_EPOCH": 6407, "BSTAR": 0, "MEAN_MOTION_DOT": 1.09e-06, "MEAN_MOTION_DDOT": 0}, "tle": {"line1": "1 42939U 17055A   25350.11200134  .00000109  00000+0  00000+0 0  9990", "line2": "2 42939  64.0761 198.1142 0006388 224.0896 135.9399  2.13102063 64079"}}, "geometry": {"type": "Point", "coordinates": [169.79184731828664, -44.24089009604226]}}, {"type": "Feature", "properties": {"norad_id": 42965, "name": "QZS-4 (QZSS/PRN 195)", "group": "gnss", "lat": 27.764540616731775, "lon": 24.32336584619185, "alt_km": 37894.072993191105, "timestamp": "2025-12-17T10:52:54.596116+00:00", "meta": {"OBJECT_NAME": "QZS-4 (QZSS/PRN 195)", "OBJECT_ID": "2017-062A", "EPOCH": "2025-12-16T07:56:51.622656", "MEAN_MOTION": 1.0025219, "ECCENTRICITY": 0.07516217, "INCLINATION": 40.224, "RA_OF_ASC_NODE": 345.8248, "ARG_OF_PERICENTER": 271.6301, "MEAN_ANOMALY": 83.0932, "EPHEMERIS_TYPE": 0, "CLASSIFICATION_TYPE": "U", "NORAD_CAT_ID": 42965, "ELEMENT_SET_NO": 999, "REV_AT_EPOCH": 2997, "BSTAR": 0, "MEAN_MOTION_DOT": -3.49e-06, "MEAN_MOTION_DDOT": 0}, "tle": {"line1": "1 42965U 17062A   25350.33115304 -.00000349  00000+0  00000+0 0  9992", "line2": "2 42965  40.2240 345.8248 0751621 271.6301  83.0932  1.00252190 29978"}}, "geometry": {"type": "Point", "coordinates": [24.32336584619185, 27.764540616731775]}}, {"type": "Feature", "properties": {"norad_id": 43001, "name": "BEIDOU-3 M1 (C19)", "group": "gnss", "lat": -41.98377530005087, "lon": -74.44210877439892, "alt_km": 21523.737788323175, "timestamp": "2025-12-17T10:52:54.596130+00:00", "meta": {"OBJECT_NAME": "BEIDOU-3 M1 (C19)", "OBJECT_ID": "2017-069A", "EPOCH": "2025-12-15T11:51:52.212384", "MEAN_MOTION": 1.86231324, "ECCENTRICITY": 0.00094078, "INCLINATION": 56.5296, "RA_OF_ASC_NODE": 69.1425, "ARG_OF_PERICENTER": 302.6057, "MEAN_ANOMALY": 57.3228, "EPHEMERIS_TYPE": 0, "CLASSIFICATION_TYPE": "U", "NORAD_CAT_ID": 43001, "ELEMENT_SET_NO": 999, "REV_AT_EPOCH": 5518, "BSTAR": 0, "MEAN_MOTION_DOT": -8.2e-07, "MEAN_MOTION_DDOT": 0}, "tle": {"line1": "1 43001U 17069A   25349.49435431 -.00000082  00000+0  00000+0 0  9996", "line2": "2 43001  56.5296  69.1425 0009407 302.6057  57.3228  1.86231324 55189"}}, "geometry": {"type": "Point", "coordinates": [-74.44210877439892, -41.98377530005087]}}, {"type": "Feature", "properties": {"norad_id": 43002, "name": "BEIDOU-3 M2 (C20)", "group": "gnss", "lat": -56.26640881049156, "lon": -12.422823813884857, "alt_km": 21524.15693323759, "timestamp": "2025-12-17T10:52:54.596153+00:00", "meta": {"OBJECT_NAME": "BEIDOU-3 M2 (C20)", "OBJECT_ID": "2017-069B", "EPOCH": "2025-12-15T23:16:20.544672", "MEAN_MOTION": 1.86230882, "ECCENTRICITY": 0.00064213, "INCLINATION": 56.5297, "RA_OF_ASC_NODE": 69.1629, "ARG_OF_PERICENTER": 331.0436, "MEAN_ANOMALY": 28.9409, "EPHEMERIS_TYPE": 0, "CLASSIFICATION_TYPE": "U", "NORAD_CAT_ID": 43002, "ELEMENT_SET_NO": 999, "REV_AT_EPOCH": 5518, "BSTAR": 0, "MEAN_MOTION_DOT": -8.1e-07, "MEAN_MOTION_DDOT": 0}, "tle": {"line1": "1 43002U 17069B   25349.96968223 -.00000081  00000+0  00000+0 0  9998", "line2": "2 43002  56.5297  69.1629 0006421 331.0436  28.9409  1.86230882 55180"}}, "geometry": {"type": "Point", "coordinates": [-12.422823813884857, -56.26640881049156]}}, {"type": "Feature", "properties": {"norad_id": 43055, "name": "GSAT0215 (GALILEO 19)", "group": "gnss", "lat": 7.648158336519003, "lon": 41.15008458777285, "alt_km": 23225.19966350335, "timestamp": "2025-12-17T10:52:54.596170+00:00", "meta": {"OBJECT_NAME": "GSAT0215 (GALILEO 19)", "OBJECT_ID": "2017-079A", "EPOCH": "2025-12-11T21:30:24.060384", "MEAN_MOTION": 1.704739, "ECCENTRICITY": 0.00012658, "INCLINATION": 55.1303, "RA_OF_ASC_NODE": 226.661, "ARG_OF_PERICENTER": 350.6161, "MEAN_ANOMALY": 9.46, "EPHEMERIS_TYPE": 0, "CLASSIFICATION_TYPE": "U", "NORAD_CAT_ID": 43055, "ELEMENT_SET_NO": 999, "REV_AT_EPOCH": 4979, "BSTAR": 0, "MEAN_MOTION_DOT": 1.3e-07, "MEAN_MOTION_DDOT": 0}, "tle": {"line1": "1 43055U 17079A   25345.89611181  .00000013  00000+0  00000+0 0  9997", "line2": "2 43055  55.1303 226.6610 0001265 350.6161   9.4600  1.70473900 49794"}}, "geometry": {"type": "Point", "coordinates": [41.15008458777285, 7.648158336519003]}}, {"type": "Feature", "properties": {"norad_id": 43056, "name": "GSAT0216 (GALILEO 20)", "group": "gnss", "lat": -6.674055193419446, "lon": -138.15784939843545, "alt_km": 23217.034861239023, "timestamp": "2025-12-17T10:52:54.596181+00:00", "meta": {"OBJECT_NAME": "GSAT0216 (GALILEO 20)", "OBJECT_ID": "2017-079B", "EPOCH": "2025-12-15T02:53:15.721440", "MEAN_MOTION": 1.70474161, "ECCENTRICITY": 0.00024377, "INCLINATION": 55.1296, "RA_OF_ASC_NODE": 226.5721, "ARG_OF_PERICENTER": 321.9365, "MEAN_ANOMALY": 38.1347, "EPHEMERIS_TYPE": 0, "CLASSIFICATION_TYPE": "U", "NORAD_CAT_ID": 43056, "ELEMENT_SET_NO": 999, "REV_AT_EPOCH": 4986, "BSTAR": 0, "MEAN_MOTION_DOT": 3.8e-07, "MEAN_MOTION_DDOT": 0}, "tle": {"line1": "1 43056U 17079B   25349.12032085  .00000038  00000+0  00000+0 0  9995", "line2": "2 43056  55.1296 226.5721 0002437 321.9365  38.1347  1.70474161 49862"}}, "geometry": {"type": "Point", "coordinates": [-138.15784939843545, -6.674055193419446]}}, {"type": "Feature", "properties": {"norad_id": 43057, "name": "GSAT0217 (GALILEO 21)", "group": "gnss", "lat": -29.145615808439903, "lon": 69.37962946875243, "alt_km": 23231.288367107707, "timestamp": "2025-12-17T10:52:54.596195+00:00", "meta": {"OBJECT_NAME": "GSAT0217 (GALILEO 21)", "OBJECT_ID": "2017-079C", "EPOCH": "2025-12-14T18:06:24.484320", "MEAN_MOTION": 1.70474057, "ECCENTRICITY": 0.00027983, "INCLINATION": 55.1277, "RA_OF_ASC_NODE": 226.5802, "ARG_OF_PERICENTER": 346.6847, "MEAN_ANOMALY": 13.3944, "EPHEMERIS_TYPE": 0, "CLASSIFICATION_TYPE": "U", "NORAD_CAT_ID": 43057, "ELEMENT_SET_NO": 999, "REV_AT_EPOCH": 4984, "BSTAR": 0, "MEAN_MOTION_DOT": 3.5e-07, "MEAN_MOTION_DDOT": 0}, "tle": {"line1": "1 43057U 17079C   25348.75445005  .00000035  00000+0  00000+0 0  9991", "line2": "2 43057  55.1277 226.5802 0002798 346.6847  13.3944  1.70474057 49841"}}, "geometry": {"type": "Point", "coordinates": [69.37962946875243, -29.145615808439903]}}, {"type": "Feature", "properties": {"norad_id": 43058, "name": "GSAT0218 (GALILEO 22)", "group": "gnss", "lat": 54.21387734470055, "lon": -58.34708559232066, "alt_km": 23221.80513212711, "timestamp": "2025-12-17T10:52:54.596209+00:00", "meta": {"OBJECT_NAME": "GSAT0218 (GALILEO 22)", "OBJECT_ID": "2017-079D", "EPOCH": "2025-12-12T15:04:31.769472", "MEAN_MOTION": 1.70474063, "ECCENTRICITY": 0.00028411, "INCLINATION": 55.1287, "RA_OF_ASC_NODE": 226.6365, "ARG_OF_PERICENTER": 306.3289, "MEAN_ANOMALY": 53.7237, "EPHEMERIS_TYPE": 0, "CLASSIFICATION_TYPE": "U", "NORAD_CAT_ID": 43058, "ELEMENT_SET_NO": 999, "REV_AT_EPOCH": 4983, "BSTAR": 0, "MEAN_MOTION_DOT": 1.7e-07, "MEAN_MOTION_DDOT": 0}, "tle": {"line1": "1 43058U 17079D   25346.62814548  .00000017  00000+0  00000+0 0  9998", "line2": "2 43058  55.1287 226.6365 0002841 306.3289  53.7237  1.70474063 49839"}}, "geometry": {"type": "Point", "coordinates": [-58.34708559232066, 54.21387734470055]}}]}